{
  "type": "FeatureCollection",
  "features": [
    {
      "type": "Feature",
      "properties": {
        "title": "太行山脉",
        "type": "mountain",
        "passable": false,
        "stroke": "#8B7355",
        "fill": "#8B7355",
        "stroke-width": 1
      },
      "geometry": {
        "type": "Polygon",
        "coordinates": [
          [
            [115.8, 40.8],
            [115.2, 40.3],
            [114.6, 39.6],
            [114.0, 38.8],
            [113.6, 38.0],
            [113.3, 37.2],
            [113.1, 36.4],
            [112.9, 35.8],
            [112.6, 35.4],
            [112.9, 35.2],
            [113.4, 35.6],
            [113.8, 36.3],
            [114.2, 37.1],
            [114.6, 38.0],
            [115.0, 38.9],
            [115.6, 39.7],
            [116.2, 40.5],
            [115.8, 40.8]
          ]
        ]
      }
    },
    {
      "type": "Feature",
      "properties": {
        "title": "吕梁山脉",
        "type": "mountain",
        "passable": false,
        "stroke": "#8B7355",
        "fill": "#8B7355",
        "stroke-width": 1
      },
      "geometry": {
        "type": "Polygon",
        "coordinates": [
          [
            [111.8, 39.2],
            [111.3, 38.4],
            [111.0, 37.5],
            [110.8, 36.5],
            [110.6, 35.6],
            [111.0, 35.4],
            [111.2, 36.3],
            [111.5, 37.3],
            [111.9, 38.3],
            [112.2, 39.0],
            [111.8, 39.2]
          ]
        ]
      }
    },
    {
      "type": "Feature",
      "properties": {
        "title": "王屋山-中条山",
        "type": "mountain",
        "passable": false,
        "stroke": "#8B7355",
        "fill": "#8B7355",
        "stroke-width": 1
      },
      "geometry": {
        "type": "Polygon",
        "coordinates": [
          [
            [112.6, 35.8],
            [112.1, 35.4],
            [111.6, 35.2],
            [111.0, 34.9],
            [110.4, 34.8],
            [110.6, 34.5],
            [111.2, 34.6],
            [111.8, 34.9],
            [112.3, 35.2],
            [112.8, 35.5],
            [112.6, 35.8]
          ]
        ]
      }
    },
    {
      "type": "Feature",
      "properties": {
        "title": "崤山",
        "type": "mountain",
        "passable": false,
        "stroke": "#8B7355",
        "fill": "#8B7355",
        "stroke-width": 1
      },
      "geometry": {
        "type": "Polygon",
        "coordinates": [
          [
            [111.8, 34.9],
            [111.2, 34.7],
            [110.5, 34.5],
            [109.8, 34.3],
            [109.3, 34.2],
            [109.5, 33.9],
            [110.2, 34.0],
            [110.9, 34.2],
            [111.6, 34.4],
            [112.1, 34.6],
            [111.8, 34.9]
          ]
        ]
      }
    },
    {
      "type": "Feature",
      "properties": {
        "title": "秦岭",
        "type": "mountain",
        "passable": false,
        "stroke": "#8B7355",
        "fill": "#8B7355",
        "stroke-width": 1
      },
      "geometry": {
        "type": "Polygon",
        "coordinates": [
          [
            [106.8, 34.6],
            [107.5, 34.5],
            [108.5, 34.3],
            [109.5, 34.1],
            [110.5, 33.9],
            [111.5, 33.8],
            [112.0, 33.7],
            [111.8, 33.4],
            [110.8, 33.5],
            [109.8, 33.7],
            [108.8, 33.9],
            [107.8, 34.1],
            [106.9, 34.3],
            [106.8, 34.6]
          ]
        ]
      }
    },
    {
      "type": "Feature",
      "properties": {
        "title": "大巴山脉",
        "type": "mountain",
        "passable": false,
        "stroke": "#8B7355",
        "fill": "#8B7355",
        "stroke-width": 1
      },
      "geometry": {
        "type": "Polygon",
        "coordinates": [
          [
            [106.5, 33.0],
            [107.5, 32.7],
            [108.5, 32.4],
            [109.5, 32.1],
            [110.3, 31.9],
            [110.6, 31.6],
            [110.0, 31.5],
            [109.0, 31.8],
            [108.0, 32.1],
            [107.0, 32.4],
            [106.4, 32.7],
            [106.5, 33.0]
          ]
        ]
      }
    },
    {
      "type": "Feature",
      "properties": {
        "title": "巫山北段",
        "type": "mountain",
        "passable": false,
        "stroke": "#8B7355",
        "fill": "#8B7355",
        "stroke-width": 1
      },
      "geometry": {
        "type": "Polygon",
        "coordinates": [
          [
            [110.6, 31.9],
            [110.9, 31.5],
            [111.0, 31.1],
            [110.8, 30.9],
            [110.4, 30.9],
            [110.3, 31.3],
            [110.2, 31.7],
            [110.6, 31.9]
          ]
        ]
      }
    },
    {
      "type": "Feature",
      "properties": {
        "title": "巫山南段",
        "type": "mountain",
        "passable": false,
        "stroke": "#8B7355",
        "fill": "#8B7355",
        "stroke-width": 1
      },
      "geometry": {
        "type": "Polygon",
        "coordinates": [
          [
            [110.3, 30.7],
            [110.6, 30.4],
            [110.8, 30.0],
            [110.5, 29.7],
            [110.1, 29.9],
            [109.9, 30.3],
            [110.0, 30.6],
            [110.3, 30.7]
          ]
        ]
      }
    },
    {
      "type": "Feature",
      "properties": {
        "title": "武陵山脉",
        "type": "mountain",
        "passable": false,
        "stroke": "#8B7355",
        "fill": "#8B7355",
        "stroke-width": 1
      },
      "geometry": {
        "type": "Polygon",
        "coordinates": [
          [
            [109.5, 30.0],
            [109.8, 29.5],
            [110.2, 29.0],
            [110.6, 28.5],
            [110.9, 28.0],
            [110.5, 27.7],
            [110.1, 28.2],
            [109.7, 28.7],
            [109.3, 29.3],
            [109.0, 29.8],
            [109.5, 30.0]
          ]
        ]
      }
    },
    {
      "type": "Feature",
      "properties": {
        "title": "雪峰山",
        "type": "mountain",
        "passable": false,
        "stroke": "#8B7355",
        "fill": "#8B7355",
        "stroke-width": 1
      },
      "geometry": {
        "type": "Polygon",
        "coordinates": [
          [
            [110.8, 28.5],
            [111.0, 28.0],
            [111.2, 27.5],
            [111.5, 27.0],
            [111.7, 26.5],
            [111.3, 26.3],
            [111.0, 26.8],
            [110.7, 27.3],
            [110.5, 27.9],
            [110.6, 28.4],
            [110.8, 28.5]
          ]
        ]
      }
    },
    {
      "type": "Feature",
      "properties": {
        "title": "南岭",
        "type": "mountain",
        "passable": false,
        "stroke": "#8B7355",
        "fill": "#8B7355",
        "stroke-width": 1
      },
      "geometry": {
        "type": "Polygon",
        "coordinates": [
          [
            [110.5, 25.8],
            [111.5, 25.6],
            [112.5, 25.4],
            [113.5, 25.3],
            [114.5, 25.2],
            [115.5, 25.2],
            [116.5, 25.3],
            [116.3, 24.9],
            [115.3, 24.8],
            [114.3, 24.9],
            [113.3, 25.0],
            [112.3, 25.1],
            [111.3, 25.3],
            [110.4, 25.5],
            [110.5, 25.8]
          ]
        ]
      }
    },
    {
      "type": "Feature",
      "properties": {
        "title": "武夷山脉",
        "type": "mountain",
        "passable": false,
        "stroke": "#8B7355",
        "fill": "#8B7355",
        "stroke-width": 1
      },
      "geometry": {
        "type": "Polygon",
        "coordinates": [
          [
            [117.8, 28.5],
            [118.0, 28.0],
            [118.2, 27.5],
            [118.5, 27.0],
            [118.8, 26.5],
            [118.6, 26.0],
            [118.2, 26.4],
            [117.9, 26.9],
            [117.6, 27.4],
            [117.4, 27.9],
            [117.5, 28.4],
            [117.8, 28.5]
          ]
        ]
      }
    },
    {
      "type": "Feature",
      "properties": {
        "title": "罗霄山脉",
        "type": "mountain",
        "passable": false,
        "stroke": "#8B7355",
        "fill": "#8B7355",
        "stroke-width": 1
      },
      "geometry": {
        "type": "Polygon",
        "coordinates": [
          [
            [113.8, 28.5],
            [114.0, 28.0],
            [114.2, 27.5],
            [114.5, 27.0],
            [114.8, 26.5],
            [114.5, 26.2],
            [114.1, 26.7],
            [113.8, 27.2],
            [113.5, 27.7],
            [113.4, 28.2],
            [113.8, 28.5]
          ]
        ]
      }
    },
    {
      "type": "Feature",
      "properties": {
        "title": "大别山脉",
        "type": "mountain",
        "passable": false,
        "stroke": "#8B7355",
        "fill": "#8B7355",
        "stroke-width": 1
      },
      "geometry": {
        "type": "Polygon",
        "coordinates": [
          [
            [114.0, 32.0],
            [114.8, 31.8],
            [115.5, 31.5],
            [116.2, 31.2],
            [116.8, 31.0],
            [116.6, 30.7],
            [115.8, 30.9],
            [115.0, 31.2],
            [114.3, 31.5],
            [113.9, 31.8],
            [114.0, 32.0]
          ]
        ]
      }
    },
    {
      "type": "Feature",
      "properties": {
        "title": "桐柏山",
        "type": "mountain",
        "passable": false,
        "stroke": "#8B7355",
        "fill": "#8B7355",
        "stroke-width": 1
      },
      "geometry": {
        "type": "Polygon",
        "coordinates": [
          [
            [112.5, 32.8],
            [113.0, 32.5],
            [113.5, 32.2],
            [114.0, 32.0],
            [113.8, 31.7],
            [113.2, 31.9],
            [112.7, 32.2],
            [112.3, 32.5],
            [112.5, 32.8]
          ]
        ]
      }
    },
    {
      "type": "Feature",
      "properties": {
        "title": "伏牛山",
        "type": "mountain",
        "passable": false,
        "stroke": "#8B7355",
        "fill": "#8B7355",
        "stroke-width": 1
      },
      "geometry": {
        "type": "Polygon",
        "coordinates": [
          [
            [110.8, 34.0],
            [111.5, 33.8],
            [112.2, 33.6],
            [112.9, 33.4],
            [113.6, 33.3],
            [113.8, 33.0],
            [113.1, 33.1],
            [112.4, 33.3],
            [111.7, 33.5],
            [111.0, 33.7],
            [110.6, 33.9],
            [110.8, 34.0]
          ]
        ]
      }
    },
    {
      "type": "Feature",
      "properties": {
        "title": "嵩山",
        "type": "mountain",
        "passable": false,
        "stroke": "#8B7355",
        "fill": "#8B7355",
        "stroke-width": 1
      },
      "geometry": {
        "type": "Polygon",
        "coordinates": [
          [
            [112.5, 34.7],
            [113.0, 34.5],
            [113.5, 34.3],
            [113.3, 34.0],
            [112.8, 34.2],
            [112.3, 34.4],
            [112.5, 34.7]
          ]
        ]
      }
    },
    {
      "type": "Feature",
      "properties": {
        "title": "泰山",
        "type": "mountain",
        "passable": false,
        "stroke": "#8B7355",
        "fill": "#8B7355",
        "stroke-width": 1
      },
      "geometry": {
        "type": "Polygon",
        "coordinates": [
          [
            [116.7, 36.6],
            [117.1, 36.4],
            [117.5, 36.2],
            [117.7, 35.9],
            [117.3, 35.8],
            [116.9, 36.0],
            [116.6, 36.3],
            [116.7, 36.6]
          ]
        ]
      }
    },
    {
      "type": "Feature",
      "properties": {
        "title": "沂蒙山",
        "type": "mountain",
        "passable": false,
        "stroke": "#8B7355",
        "fill": "#8B7355",
        "stroke-width": 1
      },
      "geometry": {
        "type": "Polygon",
        "coordinates": [
          [
            [117.6, 36.2],
            [118.0, 35.9],
            [118.4, 35.6],
            [118.7, 35.2],
            [118.5, 34.9],
            [118.0, 35.2],
            [117.6, 35.6],
            [117.3, 35.9],
            [117.6, 36.2]
          ]
        ]
      }
    },
    {
      "type": "Feature",
      "properties": {
        "title": "燕山",
        "type": "mountain",
        "passable": false,
        "stroke": "#8B7355",
        "fill": "#8B7355",
        "stroke-width": 1
      },
      "geometry": {
        "type": "Polygon",
        "coordinates": [
          [
            [115.0, 41.2],
            [116.0, 41.0],
            [117.0, 40.8],
            [118.0, 40.6],
            [119.0, 40.4],
            [119.5, 40.0],
            [118.5, 40.0],
            [117.5, 40.2],
            [116.5, 40.4],
            [115.5, 40.7],
            [114.8, 41.0],
            [115.0, 41.2]
          ]
        ]
      }
    },
    {
      "type": "Feature",
      "properties": {
        "title": "阴山",
        "type": "mountain",
        "passable": false,
        "stroke": "#8B7355",
        "fill": "#8B7355",
        "stroke-width": 1
      },
      "geometry": {
        "type": "Polygon",
        "coordinates": [
          [
            [106.0, 41.8],
            [107.5, 41.6],
            [109.0, 41.4],
            [110.5, 41.2],
            [112.0, 41.0],
            [112.3, 40.7],
            [111.0, 40.8],
            [109.5, 41.0],
            [108.0, 41.2],
            [106.5, 41.4],
            [105.8, 41.6],
            [106.0, 41.8]
          ]
        ]
      }
    },
    {
      "type": "Feature",
      "properties": {
        "title": "贺兰山",
        "type": "mountain",
        "passable": false,
        "stroke": "#8B7355",
        "fill": "#8B7355",
        "stroke-width": 1
      },
      "geometry": {
        "type": "Polygon",
        "coordinates": [
          [
            [105.8, 39.2],
            [106.0, 38.7],
            [106.2, 38.2],
            [106.4, 37.8],
            [106.2, 37.5],
            [105.9, 37.9],
            [105.7, 38.4],
            [105.6, 38.9],
            [105.8, 39.2]
          ]
        ]
      }
    },
    {
      "type": "Feature",
      "properties": {
        "title": "六盘山",
        "type": "mountain",
        "passable": false,
        "stroke": "#8B7355",
        "fill": "#8B7355",
        "stroke-width": 1
      },
      "geometry": {
        "type": "Polygon",
        "coordinates": [
          [
            [105.5, 36.8],
            [105.8, 36.3],
            [106.1, 35.8],
            [106.4, 35.3],
            [106.6, 34.9],
            [106.3, 34.7],
            [106.0, 35.2],
            [105.7, 35.7],
            [105.4, 36.2],
            [105.3, 36.7],
            [105.5, 36.8]
          ]
        ]
      }
    },
    {
      "type": "Feature",
      "properties": {
        "title": "陇山",
        "type": "mountain",
        "passable": false,
        "stroke": "#8B7355",
        "fill": "#8B7355",
        "stroke-width": 1
      },
      "geometry": {
        "type": "Polygon",
        "coordinates": [
          [
            [106.0, 35.8],
            [106.2, 35.4],
            [106.4, 35.0],
            [106.6, 34.6],
            [106.4, 34.3],
            [106.1, 34.7],
            [105.9, 35.1],
            [105.8, 35.5],
            [106.0, 35.8]
          ]
        ]
      }
    },
    {
      "type": "Feature",
      "properties": {
        "title": "祁连山",
        "type": "mountain",
        "passable": false,
        "stroke": "#8B7355",
        "fill": "#8B7355",
        "stroke-width": 1
      },
      "geometry": {
        "type": "Polygon",
        "coordinates": [
          [
            [95.0, 39.5],
            [96.5, 39.2],
            [98.0, 38.8],
            [99.5, 38.4],
            [101.0, 38.0],
            [102.5, 37.6],
            [103.0, 37.2],
            [102.5, 37.0],
            [101.0, 37.4],
            [99.5, 37.8],
            [98.0, 38.2],
            [96.5, 38.6],
            [95.2, 39.0],
            [95.0, 39.5]
          ]
        ]
      }
    },
    {
      "type": "Feature",
      "properties": {
        "title": "横断山脉",
        "type": "mountain",
        "passable": false,
        "stroke": "#8B7355",
        "fill": "#8B7355",
        "stroke-width": 1
      },
      "geometry": {
        "type": "Polygon",
        "coordinates": [
          [
            [98.5, 31.5],
            [99.0, 30.5],
            [99.5, 29.5],
            [100.0, 28.5],
            [100.5, 27.5],
            [100.8, 26.5],
            [100.4, 26.2],
            [100.0, 27.2],
            [99.5, 28.2],
            [99.0, 29.2],
            [98.5, 30.2],
            [98.0, 31.2],
            [98.5, 31.5]
          ]
        ]
      }
    },
    {
      "type": "Feature",
      "properties": {
        "title": "大雪山",
        "type": "mountain",
        "passable": false,
        "stroke": "#8B7355",
        "fill": "#8B7355",
        "stroke-width": 1
      },
      "geometry": {
        "type": "Polygon",
        "coordinates": [
          [
            [101.0, 32.0],
            [101.5, 31.0],
            [102.0, 30.0],
            [102.3, 29.0],
            [102.5, 28.0],
            [102.1, 27.7],
            [101.8, 28.7],
            [101.4, 29.7],
            [101.0, 30.7],
            [100.6, 31.7],
            [101.0, 32.0]
          ]
        ]
      }
    },
    {
      "type": "Feature",
      "properties": {
        "title": "邛崃山",
        "type": "mountain",
        "passable": false,
        "stroke": "#8B7355",
        "fill": "#8B7355",
        "stroke-width": 1
      },
      "geometry": {
        "type": "Polygon",
        "coordinates": [
          [
            [102.5, 31.5],
            [102.8, 30.8],
            [103.0, 30.0],
            [103.2, 29.2],
            [103.4, 28.5],
            [103.0, 28.3],
            [102.7, 29.0],
            [102.4, 29.8],
            [102.2, 30.6],
            [102.2, 31.3],
            [102.5, 31.5]
          ]
        ]
      }
    },
    {
      "type": "Feature",
      "properties": {
        "title": "大凉山",
        "type": "mountain",
        "passable": false,
        "stroke": "#8B7355",
        "fill": "#8B7355",
        "stroke-width": 1
      },
      "geometry": {
        "type": "Polygon",
        "coordinates": [
          [
            [102.0, 29.0],
            [102.3, 28.2],
            [102.6, 27.4],
            [102.9, 26.6],
            [103.2, 25.8],
            [102.8, 25.6],
            [102.4, 26.4],
            [102.0, 27.2],
            [101.7, 28.0],
            [101.6, 28.8],
            [102.0, 29.0]
          ]
        ]
      }
    },
    {
      "type": "Feature",
      "properties": {
        "title": "乌蒙山",
        "type": "mountain",
        "passable": false,
        "stroke": "#8B7355",
        "fill": "#8B7355",
        "stroke-width": 1
      },
      "geometry": {
        "type": "Polygon",
        "coordinates": [
          [
            [103.0, 27.5],
            [103.5, 27.0],
            [104.0, 26.5],
            [104.5, 26.0],
            [105.0, 25.5],
            [105.3, 25.1],
            [104.8, 25.0],
            [104.2, 25.5],
            [103.7, 26.0],
            [103.2, 26.5],
            [102.8, 27.0],
            [103.0, 27.5]
          ]
        ]
      }
    },
    {
      "type": "Feature",
      "properties": {
        "title": "大娄山",
        "type": "mountain",
        "passable": false,
        "stroke": "#8B7355",
        "fill": "#8B7355",
        "stroke-width": 1
      },
      "geometry": {
        "type": "Polygon",
        "coordinates": [
          [
            [106.0, 29.5],
            [106.5, 29.0],
            [107.0, 28.5],
            [107.5, 28.0],
            [108.0, 27.5],
            [107.8, 27.1],
            [107.3, 27.6],
            [106.8, 28.1],
            [106.3, 28.6],
            [105.8, 29.1],
            [106.0, 29.5]
          ]
        ]
      }
    },
    {
      "type": "Feature",
      "properties": {
        "title": "哀牢山-无量山",
        "type": "mountain",
        "passable": false,
        "stroke": "#8B7355",
        "fill": "#8B7355",
        "stroke-width": 1
      },
      "geometry": {
        "type": "Polygon",
        "coordinates": [
          [
            [100.0, 25.5],
            [100.5, 24.8],
            [101.0, 24.1],
            [101.5, 23.4],
            [102.0, 22.7],
            [101.7, 22.4],
            [101.2, 23.1],
            [100.7, 23.8],
            [100.2, 24.5],
            [99.8, 25.2],
            [100.0, 25.5]
          ]
        ]
      }
    },
    {
      "type": "Feature",
      "properties": {
        "title": "高黎贡山",
        "type": "mountain",
        "passable": false,
        "stroke": "#8B7355",
        "fill": "#8B7355",
        "stroke-width": 1
      },
      "geometry": {
        "type": "Polygon",
        "coordinates": [
          [
            [98.0, 28.5],
            [98.3, 27.8],
            [98.6, 27.1],
            [98.9, 26.4],
            [99.2, 25.7],
            [99.0, 25.3],
            [98.6, 25.9],
            [98.3, 26.6],
            [98.0, 27.3],
            [97.7, 28.0],
            [98.0, 28.5]
          ]
        ]
      }
    },
    {
      "type": "Feature",
      "properties": {
        "title": "五指山",
        "type": "mountain",
        "passable": false,
        "stroke": "#8B7355",
        "fill": "#8B7355",
        "stroke-width": 1
      },
      "geometry": {
        "type": "Polygon",
        "coordinates": [
          [
            [109.5, 19.4],
            [109.8, 19.1],
            [110.1, 18.8],
            [110.3, 18.5],
            [110.0, 18.3],
            [109.6, 18.6],
            [109.3, 18.9],
            [109.2, 19.2],
            [109.5, 19.4]
          ]
        ]
      }
    },
    {
      "type": "Feature",
      "properties": {
        "title": "台湾中央山脉",
        "type": "mountain",
        "passable": false,
        "stroke": "#8B7355",
        "fill": "#8B7355",
        "stroke-width": 1
      },
      "geometry": {
        "type": "Polygon",
        "coordinates": [
          [
            [121.0, 24.8],
            [121.2, 24.3],
            [121.4, 23.8],
            [121.6, 23.3],
            [121.7, 22.8],
            [121.4, 22.6],
            [121.2, 23.1],
            [121.0, 23.6],
            [120.8, 24.1],
            [120.7, 24.6],
            [121.0, 24.8]
          ]
        ]
      }
    },
    {
      "type": "Feature",
      "properties": {
        "title": "辽东丘陵",
        "type": "mountain",
        "passable": false,
        "stroke": "#8B7355",
        "fill": "#8B7355",
        "stroke-width": 1
      },
      "geometry": {
        "type": "Polygon",
        "coordinates": [
          [
            [122.5, 41.0],
            [123.0, 40.7],
            [123.5, 40.4],
            [124.0, 40.1],
            [124.2, 39.8],
            [123.8, 39.7],
            [123.3, 40.0],
            [122.8, 40.3],
            [122.3, 40.6],
            [122.5, 41.0]
          ]
        ]
      }
    },
    {
      "type": "Feature",
      "properties": {
        "title": "辽西丘陵",
        "type": "mountain",
        "passable": false,
        "stroke": "#8B7355",
        "fill": "#8B7355",
        "stroke-width": 1
      },
      "geometry": {
        "type": "Polygon",
        "coordinates": [
          [
            [118.5, 41.5],
            [119.5, 41.2],
            [120.5, 40.9],
            [121.0, 40.5],
            [120.8, 40.1],
            [120.0, 40.4],
            [119.0, 40.7],
            [118.2, 41.0],
            [118.5, 41.5]
          ]
        ]
      }
    },
    {
      "type": "Feature",
      "properties": {
        "title": "浙闽丘陵",
        "type": "mountain",
        "passable": false,
        "stroke": "#8B7355",
        "fill": "#8B7355",
        "stroke-width": 1
      },
      "geometry": {
        "type": "Polygon",
        "coordinates": [
          [
            [118.0, 28.8],
            [118.5, 28.3],
            [119.0, 27.8],
            [119.5, 27.3],
            [120.0, 26.8],
            [120.3, 26.3],
            [119.8, 26.2],
            [119.3, 26.7],
            [118.8, 27.2],
            [118.3, 27.7],
            [117.8, 28.3],
            [118.0, 28.8]
          ]
        ]
      }
    },
    {
      "type": "Feature",
      "properties": {
        "title": "天目山",
        "type": "mountain",
        "passable": false,
        "stroke": "#8B7355",
        "fill": "#8B7355",
        "stroke-width": 1
      },
      "geometry": {
        "type": "Polygon",
        "coordinates": [
          [
            [119.0, 31.0],
            [119.4, 30.7],
            [119.8, 30.4],
            [120.2, 30.1],
            [120.0, 29.8],
            [119.6, 30.1],
            [119.2, 30.4],
            [118.8, 30.7],
            [119.0, 31.0]
          ]
        ]
      }
    },
    {
      "type": "Feature",
      "properties": {
        "title": "会稽山",
        "type": "mountain",
        "passable": false,
        "stroke": "#8B7355",
        "fill": "#8B7355",
        "stroke-width": 1
      },
      "geometry": {
        "type": "Polygon",
        "coordinates": [
          [
            [120.0, 30.2],
            [120.4, 29.9],
            [120.8, 29.6],
            [121.2, 29.3],
            [121.4, 28.9],
            [121.0, 28.8],
            [120.6, 29.1],
            [120.2, 29.4],
            [119.8, 29.7],
            [120.0, 30.2]
          ]
        ]
      }
    },
    {
      "type": "Feature",
      "properties": {
        "title": "仙霞岭",
        "type": "mountain",
        "passable": false,
        "stroke": "#8B7355",
        "fill": "#8B7355",
        "stroke-width": 1
      },
      "geometry": {
        "type": "Polygon",
        "coordinates": [
          [
            [118.0, 28.8],
            [118.4, 28.4],
            [118.8, 28.0],
            [119.2, 27.6],
            [119.6, 27.2],
            [119.4, 26.9],
            [119.0, 27.3],
            [118.6, 27.7],
            [118.2, 28.1],
            [117.8, 28.5],
            [118.0, 28.8]
          ]
        ]
      }
    },
    {
      "type": "Feature",
      "properties": {
        "title": "雁荡山",
        "type": "mountain",
        "passable": false,
        "stroke": "#8B7355",
        "fill": "#8B7355",
        "stroke-width": 1
      },
      "geometry": {
        "type": "Polygon",
        "coordinates": [
          [
            [120.5, 28.6],
            [120.8, 28.2],
            [121.1, 27.8],
            [121.4, 27.4],
            [121.6, 27.0],
            [121.2, 26.9],
            [120.9, 27.3],
            [120.6, 27.7],
            [120.3, 28.1],
            [120.5, 28.6]
          ]
        ]
      }
    }
  ]
}